STARLINK-32168          
1 60335U 24136G   26068.43472538  .00003751  00000+0  13864-3 0  9991
2 60335  53.1605  76.9813 0001288  87.3744 272.7404 15.30217641 89626
2025-313BE              
1 67482U 25313BE  26068.69721505  .00077178  00000+0  26504-2 0  9996
2 67482  97.3989 145.3568 0007208 335.3714  24.7181 15.29801687  7972
