[{"OBJECT_NAME":"STARLINK-32168","OBJECT_ID":"2024-136G","EPOCH":"2026-03-09T10:26:00.272832","MEAN_MOTION":15.30217641,"ECCENTRICITY":0.00012883,"INCLINATION":53.1605,"RA_OF_ASC_NODE":76.9813,"ARG_OF_PERICENTER":87.3744,"MEAN_ANOMALY":272.7404,"EPHEMERIS_TYPE":0,"CLASSIFICATION_TYPE":"U","NORAD_CAT_ID":60335,"ELEMENT_SET_NO":999,"REV_AT_EPOCH":8962,"BSTAR":0.00013864454,"MEAN_MOTION_DOT":3.751e-5,"MEAN_MOTION_DDOT":0},{"OBJECT_NAME":"OBJECT BE","OBJECT_ID":"2025-313BE","EPOCH":"2026-03-09T16:43:59.380320","MEAN_MOTION":15.29801687,"ECCENTRICITY":0.00072083,"INCLINATION":97.3989,"RA_OF_ASC_NODE":145.3568,"ARG_OF_PERICENTER":335.3714,"MEAN_ANOMALY":24.7181,"EPHEMERIS_TYPE":0,"CLASSIFICATION_TYPE":"U","NORAD_CAT_ID":67482,"ELEMENT_SET_NO":999,"REV_AT_EPOCH":797,"BSTAR":0.0026504328,"MEAN_MOTION_DOT":0.00077178,"MEAN_MOTION_DDOT":0}]
